{
  "type": "FeatureCollection",
  "features": [
    {
      "type": "Feature",
      "properties": {
        "norad_id": 34316,
        "name": "COSMOS 2251 DEB",
        "group": "cosmos-2251-debris",
        "lat": -33.82804124737975,
        "lon": 145.04026955546317,
        "alt_km": 603.3089051197348,
        "timestamp": "2025-12-24T03:53:30.041219+00:00",
        "meta_object_name": "COSMOS 2251 DEB",
        "meta_object_id": "1993-036NN",
        "meta_epoch": "2025-12-23T04:24:10.735776",
        "meta_mean_motion": 14.92140079,
        "meta_eccentricity": 0.00090252,
        "meta_inclination": 74.066,
        "meta_ra_of_asc_node": 315.9628,
        "meta_arg_of_pericenter": 36.7347,
        "meta_mean_anomaly": 323.4453,
        "meta_ephemeris_type": 0,
        "meta_classification_type": "U",
        "meta_norad_cat_id": 34316,
        "meta_element_set_no": 999,
        "meta_rev_at_epoch": 89365,
        "meta_bstar": 0.0018311638,
        "meta_mean_motion_dot": 0.00018659,
        "meta_mean_motion_ddot": 0,
        "tle_line1": "1 34316U 93036NN  25357.18345759  .00018659  00000+0  18312-2 0  9997",
        "tle_line2": "2 34316  74.0660 315.9628 0009025  36.7347 323.4453 14.92140079893654"
      },
      "geometry": {
        "type": "Point",
        "coordinates": [
          145.04026955546317,
          -33.82804124737975
        ]
      }
    },
    {
      "type": "Feature",
      "properties": {
        "norad_id": 34317,
        "name": "COSMOS 2251 DEB",
        "group": "cosmos-2251-debris",
        "lat": 27.52156621037041,
        "lon": -171.68685970373642,
        "alt_km": 1222.304472151567,
        "timestamp": "2025-12-24T03:53:30.041229+00:00",
        "meta_object_name": "COSMOS 2251 DEB",
        "meta_object_id": "1993-036NP",
        "meta_epoch": "2025-12-23T00:55:00.708960",
        "meta_mean_motion": 13.65134432,
        "meta_eccentricity": 0.03368983,
        "meta_inclination": 73.9243,
        "meta_ra_of_asc_node": 18.8038,
        "meta_arg_of_pericenter": 6.0774,
        "meta_mean_anomaly": 21.3695,
        "meta_ephemeris_type": 0,
        "meta_classification_type": "U",
        "meta_norad_cat_id": 34317,
        "meta_element_set_no": 999,
        "meta_rev_at_epoch": 83760,
        "meta_bstar": 0.00058789748,
        "meta_mean_motion_dot": 6.8e-06,
        "meta_mean_motion_ddot": 0,
        "tle_line1": "1 34317U 93036NP  25357.03820265  .00000680  00000+0  58790-3 0  9992",
        "tle_line2": "2 34317  73.9243  18.8038 0336898   6.0774  21.3695 13.65134432837609"
      },
      "geometry": {
        "type": "Point",
        "coordinates": [
          -171.68685970373642,
          27.52156621037041
        ]
      }
    },
    {
      "type": "Feature",
      "properties": {
        "norad_id": 34321,
        "name": "COSMOS 2251 DEB",
        "group": "cosmos-2251-debris",
        "lat": 72.33452646697256,
        "lon": -161.03148703951314,
        "alt_km": 729.3921627055524,
        "timestamp": "2025-12-24T03:53:30.041240+00:00",
        "meta_object_name": "COSMOS 2251 DEB",
        "meta_object_id": "1993-036NT",
        "meta_epoch": "2025-12-23T19:56:13.777728",
        "meta_mean_motion": 14.50100851,
        "meta_eccentricity": 0.0016034,
        "meta_inclination": 74.0277,
        "meta_ra_of_asc_node": 135.5234,
        "meta_arg_of_pericenter": 264.425,
        "meta_mean_anomaly": 248.4344,
        "meta_ephemeris_type": 0,
        "meta_classification_type": "U",
        "meta_norad_cat_id": 34321,
        "meta_element_set_no": 999,
        "meta_rev_at_epoch": 88647,
        "meta_bstar": 0.00053285,
        "meta_mean_motion_dot": 2.044e-05,
        "meta_mean_motion_ddot": 0,
        "tle_line1": "1 34321U 93036NT  25357.83071502  .00002044  00000+0  53285-3 0  9997",
        "tle_line2": "2 34321  74.0277 135.5234 0016034 264.4250 248.4344 14.50100851886479"
      },
      "geometry": {
        "type": "Point",
        "coordinates": [
          -161.03148703951314,
          72.33452646697256
        ]
      }
    },
    {
      "type": "Feature",
      "properties": {
        "norad_id": 34323,
        "name": "COSMOS 2251 DEB",
        "group": "cosmos-2251-debris",
        "lat": 23.69670735391014,
        "lon": 107.95064541026585,
        "alt_km": 663.2645918822291,
        "timestamp": "2025-12-24T03:53:30.041250+00:00",
        "meta_object_name": "COSMOS 2251 DEB",
        "meta_object_id": "1993-036NV",
        "meta_epoch": "2025-12-23T10:12:41.479776",
        "meta_mean_motion": 14.74741171,
        "meta_eccentricity": 0.0057617,
        "meta_inclination": 73.9539,
        "meta_ra_of_asc_node": 102.1394,
        "meta_arg_of_pericenter": 143.4972,
        "meta_mean_anomaly": 292.4572,
        "meta_ephemeris_type": 0,
        "meta_classification_type": "U",
        "meta_norad_cat_id": 34323,
        "meta_element_set_no": 999,
        "meta_rev_at_epoch": 88597,
        "meta_bstar": 0.0022315,
        "meta_mean_motion_dot": 0.00015329,
        "meta_mean_motion_ddot": 0,
        "tle_line1": "1 34323U 93036NV  25357.42548009  .00015329  00000+0  22315-2 0  9994",
        "tle_line2": "2 34323  73.9539 102.1394 0057617 143.4972 292.4572 14.74741171885974"
      },
      "geometry": {
        "type": "Point",
        "coordinates": [
          107.95064541026585,
          23.69670735391014
        ]
      }
    },
    {
      "type": "Feature",
      "properties": {
        "norad_id": 34325,
        "name": "COSMOS 2251 DEB",
        "group": "cosmos-2251-debris",
        "lat": -58.43526459856182,
        "lon": 20.782617127111937,
        "alt_km": 802.5048493400818,
        "timestamp": "2025-12-24T03:53:30.041261+00:00",
        "meta_object_name": "COSMOS 2251 DEB",
        "meta_object_id": "1993-036NX",
        "meta_epoch": "2025-12-22T11:34:12.778176",
        "meta_mean_motion": 14.0453164,
        "meta_eccentricity": 0.01915677,
        "meta_inclination": 73.8701,
        "meta_ra_of_asc_node": 175.6408,
        "meta_arg_of_pericenter": 191.1503,
        "meta_mean_anomaly": 197.845,
        "meta_ephemeris_type": 0,
        "meta_classification_type": "U",
        "meta_norad_cat_id": 34325,
        "meta_element_set_no": 999,
        "meta_rev_at_epoch": 85652,
        "meta_bstar": 0.001912921,
        "meta_mean_motion_dot": 3.573e-05,
        "meta_mean_motion_ddot": 0,
        "tle_line1": "1 34325U 93036NX  25356.48209234  .00003573  00000+0  19129-2 0  9992",
        "tle_line2": "2 34325  73.8701 175.6408 0191567 191.1503 197.8450 14.04531640856523"
      },
      "geometry": {
        "type": "Point",
        "coordinates": [
          20.782617127111937,
          -58.43526459856182
        ]
      }
    },
    {
      "type": "Feature",
      "properties": {
        "norad_id": 34327,
        "name": "COSMOS 2251 DEB",
        "group": "cosmos-2251-debris",
        "lat": -57.057942173336706,
        "lon": 122.70034953027123,
        "alt_km": 585.0248878055663,
        "timestamp": "2025-12-24T03:53:30.041271+00:00",
        "meta_object_name": "COSMOS 2251 DEB",
        "meta_object_id": "1993-036NZ",
        "meta_epoch": "2025-12-23T16:57:16.638048",
        "meta_mean_motion": 14.89413751,
        "meta_eccentricity": 0.003358,
        "meta_inclination": 73.9943,
        "meta_ra_of_asc_node": 149.9084,
        "meta_arg_of_pericenter": 324.1621,
        "meta_mean_anomaly": 52.7825,
        "meta_ephemeris_type": 0,
        "meta_classification_type": "U",
        "meta_norad_cat_id": 34327,
        "meta_element_set_no": 999,
        "meta_rev_at_epoch": 89671,
        "meta_bstar": 0.0013481,
        "meta_mean_motion_dot": 0.00012936,
        "meta_mean_motion_ddot": 0,
        "tle_line1": "1 34327U 93036NZ  25357.70644257  .00012936  00000+0  13481-2 0  9996",
        "tle_line2": "2 34327  73.9943 149.9084 0033580 324.1621  52.7825 14.89413751896712"
      },
      "geometry": {
        "type": "Point",
        "coordinates": [
          122.70034953027123,
          -57.057942173336706
        ]
      }
    },
    {
      "type": "Feature",
      "properties": {
        "norad_id": 34340,
        "name": "COSMOS 2251 DEB",
        "group": "cosmos-2251-debris",
        "lat": -73.15837846408877,
        "lon": 179.45825498869448,
        "alt_km": 1101.5235818982892,
        "timestamp": "2025-12-24T03:53:30.041281+00:00",
        "meta_object_name": "COSMOS 2251 DEB",
        "meta_object_id": "1993-036PN",
        "meta_epoch": "2025-12-23T19:44:44.494080",
        "meta_mean_motion": 13.79617411,
        "meta_eccentricity": 0.0284002,
        "meta_inclination": 74.0787,
        "meta_ra_of_asc_node": 289.4756,
        "meta_arg_of_pericenter": 34.6776,
        "meta_mean_anomaly": 347.2098,
        "meta_ephemeris_type": 0,
        "meta_classification_type": "U",
        "meta_norad_cat_id": 34340,
        "meta_element_set_no": 999,
        "meta_rev_at_epoch": 84421,
        "meta_bstar": 0.0016376,
        "meta_mean_motion_dot": 2.265e-05,
        "meta_mean_motion_ddot": 0,
        "tle_line1": "1 34340U 93036PN  25357.82273720  .00002265  00000+0  16376-2 0  9997",
        "tle_line2": "2 34340  74.0787 289.4756 0284002  34.6776 347.2098 13.79617411844211"
      },
      "geometry": {
        "type": "Point",
        "coordinates": [
          179.45825498869448,
          -73.15837846408877
        ]
      }
    }
  ]
}